DMSP 5D-3 F16 (USA 172) 
1 28054U 03048A   26156.92949257  .00000007  00000+0  27491-4 0  9994
2 28054  98.9893 180.6829 0007170 169.9802 312.2153 14.14482017167891
METEOSAT-9 (MSG-2)      
1 28912U 05049B   26156.84400411  .00000135  00000+0  00000+0 0  9999
2 28912   9.3350  54.2780 0002326  40.8445 148.6919  1.00267887  6887
DMSP 5D-3 F17 (USA 191) 
1 29522U 06050A   26156.85587869  .00000054  00000+0  49975-4 0  9993
2 29522  98.7378 163.6578 0011328  88.3350 271.9121 14.14991366 10820
FENGYUN 3A              
1 32958U 08026A   26156.84043034  .00000090  00000+0  63350-4 0  9998
2 32958  98.6881  97.8861 0009101 154.0282 206.1353 14.19568788933799
GOES 14                 
1 35491U 09033A   26156.35465316 -.00000229  00000+0  00000+0 0  9992
2 35491   1.6591  83.1855 0002095   0.7745  86.0901  1.00115245  6475
DMSP 5D-3 F18 (USA 210) 
1 35951U 09057A   26156.89721208  .00000298  00000+0  17732-3 0  9992
2 35951  98.9033 137.6912 0009911 285.5141  74.4938 14.14890564857997
EWS-G2 (GOES 15)        
1 36411U 10008A   26156.93225698  .00000032  00000+0  00000+0 0  9991
2 36411   1.2463  83.0466 0005503  36.2780 174.2140  1.00275955 59523
COMS 1                  
1 36744U 10032A   26152.73864208 -.00000334  00000+0  00000+0 0  9993
2 36744   4.7700  75.5552 0001064 351.7830 216.9341  1.00271905 50939
FENGYUN 3B              
1 37214U 10059A   26157.20586058  .00000234  00000+0  14443-3 0  9994
2 37214  98.9617 203.1732 0021370 215.8297 230.3368 14.14839328805870
SUOMI NPP               
1 37849U 11061A   26156.92179235  .00000093  00000+0  65074-4 0  9995
2 37849  98.7950  97.8751 0002126  30.9722 329.1579 14.19515038756845
METEOSAT-10 (MSG-3)     
1 38552U 12035B   26156.91969608  .00000007  00000+0  00000+0 0  9997
2 38552   4.6444  61.0690 0001767 336.1273 188.4207  1.00275688 50748
METOP-B                 
1 38771U 12049A   26156.92700189  .00000114  00000+0  72076-4 0  9999
2 38771  98.6508 208.6503 0002859  45.3695 314.7715 14.21429673711662
INSAT-3D                
1 39216U 13038B   26156.94534373 -.00000326  00000+0  00000+0 0  9994
2 39216   1.8964  82.6835 0000849 350.1240 291.3787  1.00268431 46966
HIMAWARI-8              
1 40267U 14060A   26156.94751041 -.00000263  00000+0  00000+0 0  9991
2 40267   0.0149  38.8205 0000929  55.0701 282.2629  1.00271882 42645
FENGYUN 2G              
1 40367U 14090A   26156.65428056 -.00000291  00000+0  00000+0 0  9991
2 40367   5.6094  72.9555 0003553 153.6086   2.6058  1.00278137 41885
METEOSAT-11 (MSG-4)     
1 40732U 15034A   26156.92125609  .00000076  00000+0  00000+0 0  9994
2 40732   3.1742  71.1720 0001659   4.6511 159.5592  1.00276798  7105
ELEKTRO-L 2             
1 41105U 15074A   26156.98814725 -.00000105  00000+0  00000+0 0  9997
2 41105   6.6659  70.6588 0001304 282.3931 242.6125  1.00272284 38396
SENTINEL-3A             
1 41335U 16011A   26156.92565675  .00000132  00000+0  72536-4 0  9992
2 41335  98.6250 224.4705 0001326 105.1973 254.9354 14.26736926536451
INSAT-3DR               
1 41752U 16054A   26156.94983272 -.00000064  00000+0  00000+0 0  9998
2 41752   0.0773  87.8584 0010302 187.0930  35.3640  1.00270840 35700
HIMAWARI-9              
1 41836U 16064A   26156.94759706 -.00000261  00000+0  00000+0 0  9994
2 41836   0.0408 167.8179 0000966 298.9963 269.4538  1.00274382 35093
FENGYUN 4A              
1 41882U 16077A   26156.94421705 -.00000344  00000+0  00000+0 0  9996
2 41882   2.2940  80.4054 0008163 151.7051 125.9248  1.00275631 34813
CYGFM05                 
1 41884U 16078A   26156.89064609  .00030137  00000+0  41556-3 0  9996
2 41884  34.9577 335.3662 0007329  34.7933 325.3269 15.56152582526991
CYGFM04                 
1 41885U 16078B   26156.83197738  .00037639  00000+0  43384-3 0  9996
2 41885  34.9331 304.0083 0006067  80.0343 280.1067 15.60857106527227
CYGFM02                 
1 41886U 16078C   26156.79020430  .00042470  00000+0  43700-3 0  9997
2 41886  34.9411 299.1495 0007038  82.1301 278.0225 15.63734478527382
CYGFM01                 
1 41887U 16078D   26156.88422730  .00031840  00000+0  42827-3 0  9995
2 41887  34.9408 336.5564 0007150  28.4006 331.7107 15.56811551526949
CYGFM08                 
1 41888U 16078E   26156.86284231  .00036780  00000+0  44804-3 0  9991
2 41888  34.9441 316.5722 0008012  62.1858 297.9679 15.59404697527208
CYGFM07                 
1 41890U 16078G   26156.82271036  .00037229  00000+0  45196-3 0  9993
2 41890  34.9454 305.1911 0006438  79.2850 280.8600 15.59506302527223
CYGFM03                 
1 41891U 16078H   26156.79365538  .00036117  00000+0  43874-3 0  9997
2 41891  34.9410 307.3248 0006006  65.1599 294.9750 15.59497263527191
